{
  "norad_id": 60429,
  "name": "STARLINK-32242",
  "history": [
    {
      "epoch": "2026-03-28T19:18:45.133920Z",
      "apogee_km": 475.89915588226086,
      "perigee_km": 474.54465802789036,
      "latitude_deg": -2.0262952625340773e-05,
      "longitude_deg": 12.587053294306298,
      "height_km": 475.9742179644839,
      "semi_major_axis_km": 6853.358906955075,
      "eccentricity": 9.882e-05,
      "inclination_deg": 53.16,
      "raan_deg": 128.495,
      "arg_perigee_deg": 77.5349,
      "mean_anomaly_deg": 282.5762,
      "mean_motion_rev_day": 15.3019771
    }
  ]
}